$$SOE
2460721.500000000, A.D. 2025-Feb-15 00:00:00.0000, -1.969943561168293E+08, -3.801883784902661E+08, -5.957775752612855E+07,
2460728.500000000, A.D. 2025-Feb-22 00:00:00.0000, -1.867353377219494E+08, -3.830025826585456E+08, -5.886376884335174E+07,
2460735.500000000, A.D. 2025-Mar-01 00:00:00.0000, -1.763624333639923E+08, -3.855832344813906E+08, -5.811387656176446E+07,
2460742.500000000, A.D. 2025-Mar-08 00:00:00.0000, -1.658803153897344E+08, -3.879251477684084E+08, -5.732799409211759E+07,
2460749.500000000, A.D. 2025-Mar-15 00:00:00.0000, -1.552938813417960E+08, -3.900231504385836E+08, -5.650605881776972E+07,
2460756.500000000, A.D. 2025-Mar-22 00:00:00.0000, -1.446082630073141E+08, -3.918720923146456E+08, -5.564803339032575E+07,
2460763.500000000, A.D. 2025-Mar-29 00:00:00.0000, -1.338288339985565E+08, -3.934668558427960E+08, -5.475390739534101E+07,
2460770.500000000, A.D. 2025-Apr-05 00:00:00.0000, -1.229612154973988E+08, -3.948023666306232E+08, -5.382369916105917E+07,
2460777.500000000, A.D. 2025-Apr-12 00:00:00.0000, -1.120112820425585E+08, -3.958736037283018E+08, -5.285745752385247E+07,
2460784.500000000, A.D. 2025-Apr-19 00:00:00.0000, -1.009851674948120E+08, -3.966756105612607E+08, -5.185526360324448E+07,
2460791.500000000, A.D. 2025-Apr-26 00:00:00.0000, -8.988927085167500E+07, -3.972035067416927E+08, -5.081723262522659E+07,
2460798.500000000, A.D. 2025-May-03 00:00:00.0000, -7.873026173587959E+07, -3.974525007609263E+08, -4.974351579898164E+07,
2460805.500000000, A.D. 2025-May-10 00:00:00.0000, -6.751508546176663E+07, -3.974179035714760E+08, -4.863430224411988E+07,
2460812.500000000, A.D. 2025-May-17 00:00:00.0000, -5.625096757005981E+07, -3.970951431127111E+08, -4.748982096909571E+07,
2460819.500000000, A.D. 2025-May-24 00:00:00.0000, -4.494541757804805E+07, -3.964797798423029E+08, -4.631034291394356E+07,
2460826.500000000, A.D. 2025-May-31 00:00:00.0000, -3.360623144175791E+07, -3.955675229655069E+08, -4.509618306217256E+07,
2460833.500000000, A.D. 2025-Jun-07 00:00:00.0000, -2.224149304019855E+07, -3.943542461561986E+08, -4.384770247797129E+07,
2460840.500000000, A.D. 2025-Jun-14 00:00:00.0000, -1.085957695179347E+07, -3.928360034286799E+08, -4.256531009672663E+07,
2460847.500000000, A.D. 2025-Jun-21 00:00:00.0000, 5.308487918731656E+05, -3.910090484151192E+08, -4.124946463671130E+07,
2460854.500000000, A.D. 2025-Jun-28 00:00:00.0000, 1.192082320482722E+07, -3.888698552587731E+08, -3.990067676190957E+07,
2460861.500000000, A.D. 2025-Jul-05 00:00:00.0000, 2.330109468601510E+07, -3.864151389303555E+08, -3.851951116597554E+07,
2460868.500000000, A.D. 2025-Jul-12 00:00:00.0000, 3.466212411650480E+07, -3.836418757239522E+08, -3.710658851752858E+07,
2460875.500000000, A.D. 2025-Jul-19 00:00:00.0000, 4.599408901522534E+07, -3.805473244464929E+08, -3.566258731356312E+07,
2460882.500000000, A.D. 2025-Jul-26 00:00:00.0000, 5.728688907481874E+07, -3.771290482839465E+08, -3.418824564614242E+07,
2460889.500000000, A.D. 2025-Aug-02 00:00:00.0000, 6.853015325339140E+07, -3.733849372353991E+08, -3.268436286670522E+07,
2460896.500000000, A.D. 2025-Aug-09 00:00:00.0000, 7.971324855366825E+07, -3.693132310276623E+08, -3.115180113023019E+07,
2460903.500000000, A.D. 2025-Aug-16 00:00:00.0000, 9.082529067071085E+07, -3.649125424571261E+08, -2.959148680921379E+07,
2460910.500000000, A.D. 2025-Aug-23 00:00:00.0000, 1.018551568984558E+08, -3.601818810111728E+08, -2.800441177942917E+07,
2460917.500000000, A.D. 2025-Aug-30 00:00:00.0000, 1.127915017124608E+08, -3.551206759078737E+08, -2.639163452451703E+07,
2460924.500000000, A.D. 2025-Sep-06 00:00:00.0000, 1.236227736879481E+08, -3.497287973889300E+08, -2.475428082183884E+07,
2460931.500000000, A.D. 2025-Sep-13 00:00:00.0000, 1.343372321467821E+08, -3.440065785653403E+08, -2.309354403300047E+07,
2460938.500000000, A.D. 2025-Sep-20 00:00:00.0000, 1.449229668573903E+08, -3.379548392608007E+08, -2.141068540754321E+07,
2460945.500000000, A.D. 2025-Sep-27 00:00:00.0000, 1.553679218802396E+08, -3.315749085304509E+08, -1.970703421702337E+07,
2460952.500000000, A.D. 2025-Oct-04 00:00:00.0000, 1.656599215549636E+08, -3.248686450932500E+08, -1.798398746548584E+07,
2460959.500000000, A.D. 2025-Oct-11 00:00:00.0000, 1.757866982446748E+08, -3.178384563866554E+08, -1.624300919525035E+07,
2460966.500000000, A.D. 2025-Oct-18 00:00:00.0000, 1.857359220849169E+08, -3.104873162745407E+08, -1.448562941421719E+07,
2460973.500000000, A.D. 2025-Oct-25 00:00:00.0000, 1.954952328127531E+08, -3.028187811479187E+08, -1.271344263650587E+07,
2460980.500000000, A.D. 2025-Nov-01 00:00:00.0000, 2.050522736211076E+08, -2.948370041503596E+08, -1.092810602138889E+07,
2460987.500000000, A.D. 2025-Nov-08 00:00:00.0000, 2.143947269469378E+08, -2.865467473063160E+08, -9.131337102208078E+06,
2460994.500000000, A.D. 2025-Nov-15 00:00:00.0000, 2.235103521841582E+08, -2.779533913614776E+08, -7.324911113463283E+06,
2461001.500000000, A.D. 2025-Nov-22 00:00:00.0000, 2.323870255366259E+08, -2.690629428766015E+08, -5.510657928968772E+06,
2461008.500000000, A.D. 2025-Nov-29 00:00:00.0000, 2.410127816380343E+08, -2.598820372184605E+08, -3.690458502558559E+06,
2461015.500000000, A.D. 2025-Dec-06 00:00:00.0000, 2.493758544065861E+08, -2.504179373811044E+08, -1.866240616885707E+06,
2461022.500000000, A.D. 2025-Dec-13 00:00:00.0000, 2.574647172807550E+08, -2.406785318240779E+08, -3.997426462927461E+04,
2461029.500000000, A.D. 2025-Dec-20 00:00:00.0000, 2.652681260160721E+08, -2.306723301470509E+08, 1.786333086128667E+06,
2461036.500000000, A.D. 2025-Dec-27 00:00:00.0000, 2.727751626337951E+08, -2.204084538876838E+08, 3.610641632013425E+06,
2461043.500000000, A.D. 2026-Jan-03 00:00:00.0000, 2.799752787058693E+08, -2.098966229748348E+08, 5.430884837175578E+06,
2461050.500000000, A.D. 2026-Jan-10 00:00:00.0000, 2.868583377128533E+08, -1.991471384729913E+08, 7.244975401211031E+06,
2461057.500000000, A.D. 2026-Jan-17 00:00:00.0000, 2.934146563234406E+08, -1.881708617105277E+08, 9.050811525832742E+06,
2461064.500000000, A.D. 2026-Jan-24 00:00:00.0000, 2.996350442841115E+08, -1.769791898173611E+08, 1.084628343234727E+07,
2461071.500000000, A.D. 2026-Jan-31 00:00:00.0000, 3.055108425520052E+08, -1.655840277763319E+08, 1.262928007958631E+07,
2461078.500000000, A.D. 2026-Feb-07 00:00:00.0000, 3.110339593454211E+08, -1.539977571897497E+08, 1.439769601925051E+07,
2461085.500000000, A.D. 2026-Feb-14 00:00:00.0000, 3.161969039886463E+08, -1.422332019627439E+08, 1.614943830636091E+07,
2461092.500000000, A.D. 2026-Feb-21 00:00:00.0000, 3.209928185882670E+08, -1.303035905524076E+08, 1.788243341537753E+07,
2461099.500000000, A.D. 2026-Feb-28 00:00:00.0000, 3.254155061457623E+08, -1.182225139012160E+08, 1.959463429468829E+07,
2461106.500000000, A.D. 2026-Mar-07 00:00:00.0000, 3.294594527756252E+08, -1.060038813250279E+08, 2.128402752853170E+07,
2461113.500000000, A.D. 2026-Mar-14 00:00:00.0000, 3.331198465658950E+08, -9.366187704535392E+07, 2.294864010075807E+07,
2461120.500000000, A.D. 2026-Mar-21 00:00:00.0000, 3.363925946668010E+08, -8.121091485214879E+07, 2.458654577474197E+07,
2461127.500000000, A.D. 2026-Mar-28 00:00:00.0000, 3.392743364490871E+08, -6.866559027579080E+07, 2.619587130131026E+07,
2461134.500000000, A.D. 2026-Apr-04 00:00:00.0000, 3.417624520283347E+08, -5.604063165623597E+07, 2.777480237745775E+07,
2461141.500000000, A.D. 2026-Apr-11 00:00:00.0000, 3.438550663805100E+08, -4.335085089841093E+07, 2.932158925140975E+07,
2461148.500000000, A.D. 2026-Apr-18 00:00:00.0000, 3.455510492123572E+08, -3.061109434972183E+07, 3.083455191391782E+07,
2461155.500000000, A.D. 2026-Apr-25 00:00:00.0000, 3.468500106895556E+08, -1.783619420765065E+07, 3.231208483368358E+07,
2461162.500000000, A.D. 2026-May-02 00:00:00.0000, 3.477522931613653E+08, -5.040920896725286E+06, 3.375266119906725E+07,
2461169.500000000, A.D. 2026-May-09 00:00:00.0000, 3.482589591617655E+08, 7.760063128006905E+06, 3.515483662335125E+07,
2461176.500000000, A.D. 2026-May-16 00:00:00.0000, 3.483717762611135E+08, 2.055224792310332E+07, 3.651725227049347E+07,
2461183.500000000, A.D. 2026-May-23 00:00:00.0000, 3.480931990513410E+08, 3.332131963448181E+07, 3.783863746690342E+07,
2461190.500000000, A.D. 2026-May-30 00:00:00.0000, 3.474263464568416E+08, 4.605320313677259E+07, 3.911781201186417E+07,
2461197.500000000, A.D. 2026-Jun-06 00:00:00.0000, 3.463749743574126E+08, 5.873410019962674E+07, 4.035368795172893E+07,
2461204.500000000, A.D. 2026-Jun-13 00:00:00.0000, 3.449434475052390E+08, 7.135052315684029E+07, 4.154527050515243E+07,
2461211.500000000, A.D. 2026-Jun-20 00:00:00.0000, 3.431367105626384E+08, 8.388932682818240E+07, 4.269165843729645E+07,
2461218.500000000, A.D. 2026-Jun-27 00:00:00.0000, 3.409602569026785E+08, 9.633773822149310E+07, 4.379204403034788E+07,
2461225.500000000, A.D. 2026-Jul-04 00:00:00.0000, 3.384200955171136E+08, 1.086833831487868E+08, 4.484571261125302E+07,
2461232.500000000, A.D. 2026-Jul-11 00:00:00.0000, 3.355227166270294E+08, 1.209143095736730E+08, 4.585204163071113E+07,
2461239.500000000, A.D. 2026-Jul-18 00:00:00.0000, 3.322750564223517E+08, 1.330190077040294E+08, 4.681049931841789E+07,
2461246.500000000, A.D. 2026-Jul-25 00:00:00.0000, 3.286844612758445E+08, 1.449864268573210E+08, 4.772064294660871E+07,
2461253.500000000, A.D. 2026-Aug-01 00:00:00.0000, 3.247586517851053E+08, 1.568059891085693E+08, 4.858211672970440E+07,
2461260.500000000, A.D. 2026-Aug-08 00:00:00.0000, 3.205056871444211E+08, 1.684675997728283E+08, 4.939464937501211E+07,
2461267.500000000, A.D. 2026-Aug-15 00:00:00.0000, 3.159339305265157E+08, 1.799616552843026E+08, 5.015805132092441E+07,
2461274.500000000, A.D. 2026-Aug-22 00:00:00.0000, 3.110520149494320E+08, 1.912790498258633E+08, 5.087221186863539E+07,
2461281.500000000, A.D. 2026-Aug-29 00:00:00.0000, 3.058688075506342E+08, 2.024111794931210E+08, 5.153709634269030E+07,
2461288.500000000, A.D. 2026-Sep-05 00:00:00.0000, 3.003933745972900E+08, 2.133499412968684E+08, 5.215274288891889E+07,
$$EOE